start=new Date('2023-04-19T00:00:00.000Z').valueOf();
sats=[{"MEAN_ANOMALY":"274.2908","MEAN_ELEMENT_THEORY":"SGP4","OBJECT_ID":"2022-016K","REF_FRAME":"TEME","SEMIMAJOR_AXIS":"6717.881","ECCENTRICITY":"0.00010490","SITE":"AFETR","OBJECT_NAME":"STARLINK-3531","PERIAPSIS":"339.042","BSTAR":"0.00000808570000","TLE_LINE2":"2 51723  53.1968 205.8115 0001049  85.8233 274.2908 15.76718840 66570","TIME_SYSTEM":"UTC","FILE":"3889987","OBJECT_TYPE":"PAYLOAD","MEAN_MOTION_DOT":"0.00000669","LAUNCH_DATE":"2022-02-21","TLE_LINE1":"1 51723U 22016K   23108.65499479  .00000669  00000-0  80857-5 0  9990","EPHEMERIS_TYPE":"0","RA_OF_ASC_NODE":"205.8115","MEAN_MOTION":"15.76718840","CLASSIFICATION_TYPE":"U","PERIOD":"91.329","INCLINATION":"53.1968","RCS_SIZE":"LARGE","MEAN_MOTION_DDOT":"0.0000000000000","DECAY_DATE":null,"GP_ID":"230332529","CENTER_NAME":"EARTH","ARG_OF_PERICENTER":"85.8233","REV_AT_EPOCH":"6657","COUNTRY_CODE":"US","EPOCH":"2023-04-18T15:43:11.549856","ELEMENT_SET_NO":"999","APOAPSIS":"340.451","NORAD_CAT_ID":"51723"},{"BSTAR":"0.00005509800000","TLE_LINE2":"2 51724  53.2175  31.9851 0001198  94.4203 265.6927 15.08846858 63922","TIME_SYSTEM":"UTC","OBJECT_TYPE":"PAYLOAD","FILE":"3889684","LAUNCH_DATE":"2022-02-21","MEAN_MOTION_DOT":"0.00000589","TLE_LINE1":"1 51724U 22016L   23108.17726223  .00000589  00000-0  55098-4 0  9997","EPHEMERIS_TYPE":"0","MEAN_ANOMALY":"265.6927","REF_FRAME":"TEME","MEAN_ELEMENT_THEORY":"SGP4","OBJECT_ID":"2022-016L","SITE":"AFETR","OBJECT_NAME":"STARLINK-3529","ECCENTRICITY":"0.00011980","SEMIMAJOR_AXIS":"6917.859","PERIAPSIS":"538.896","DECAY_DATE":null,"GP_ID":"230298464","ARG_OF_PERICENTER":"94.4203","CENTER_NAME":"EARTH","COUNTRY_CODE":"US","REV_AT_EPOCH":"6392","EPOCH":"2023-04-18T04:15:15.456672","ELEMENT_SET_NO":"999","APOAPSIS":"540.553","NORAD_CAT_ID":"51724","RA_OF_ASC_NODE":"31.9851","MEAN_MOTION":"15.08846858","CLASSIFICATION_TYPE":"U","PERIOD":"95.437","RCS_SIZE":"LARGE","MEAN_MOTION_DDOT":"0.0000000000000","INCLINATION":"53.2175"},{"MEAN_ANOMALY":"273.4167","MEAN_ELEMENT_THEORY":"SGP4","OBJECT_ID":"2022-016M","REF_FRAME":"TEME","SEMIMAJOR_AXIS":"6917.861","OBJECT_NAME":"STARLINK-3522","SITE":"AFETR","ECCENTRICITY":"0.00012190","PERIAPSIS":"538.882","BSTAR":"0.00023387000000","TIME_SYSTEM":"UTC","TLE_LINE2":"2 51725  53.2172  31.9376 0001219  86.6964 273.4167 15.08846487 63924","FILE":"3889684","OBJECT_TYPE":"PAYLOAD","MEAN_MOTION_DOT":"0.00003437","LAUNCH_DATE":"2022-02-21","TLE_LINE1":"1 51725U 22016M   23108.18830344  .00003437  00000-0  23387-3 0  9999","EPHEMERIS_TYPE":"0","RA_OF_ASC_NODE":"31.9376","MEAN_MOTION":"15.08846487","CLASSIFICATION_TYPE":"U","PERIOD":"95.437","RCS_SIZE":"LARGE","MEAN_MOTION_DDOT":"0.0000000000000","INCLINATION":"53.2172","DECAY_DATE":null,"GP_ID":"230298714","ARG_OF_PERICENTER":"86.6964","CENTER_NAME":"EARTH","REV_AT_EPOCH":"6392","COUNTRY_CODE":"US","EPOCH":"2023-04-18T04:31:09.417216","ELEMENT_SET_NO":"999","APOAPSIS":"540.569","NORAD_CAT_ID":"51725"},{"MEAN_ELEMENT_THEORY":"SGP4","OBJECT_ID":"2022-016N","REF_FRAME":"TEME","MEAN_ANOMALY":"257.0330","PERIAPSIS":"538.901","SEMIMAJOR_AXIS":"6917.871","OBJECT_NAME":"STARLINK-3527","SITE":"AFETR","ECCENTRICITY":"0.00012070","FILE":"3889684","OBJECT_TYPE":"PAYLOAD","TLE_LINE2":"2 51726  53.2179  22.3955 0001207 103.0797 257.0330 15.08842946 64055","TIME_SYSTEM":"UTC","BSTAR":"0.00009319300000","EPHEMERIS_TYPE":"0","TLE_LINE1":"1 51726U 22016N   23108.08618372  .00001196  00000-0  93193-4 0  9997","MEAN_MOTION_DOT":"0.00001196","LAUNCH_DATE":"2022-02-21","PERIOD":"95.437","CLASSIFICATION_TYPE":"U","MEAN_MOTION":"15.08842946","RA_OF_ASC_NODE":"22.3955","RCS_SIZE":"LARGE","INCLINATION":"53.2179","MEAN_MOTION_DDOT":"0.0000000000000","REV_AT_EPOCH":"6405","COUNTRY_CODE":"US","ARG_OF_PERICENTER":"103.0797","CENTER_NAME":"EARTH","DECAY_DATE":null,"GP_ID":"230298965","NORAD_CAT_ID":"51726","APOAPSIS":"540.571","ELEMENT_SET_NO":"999","EPOCH":"2023-04-18T02:04:06.273408"},{"REF_FRAME":"TEME","OBJECT_ID":"2022-016P","MEAN_ELEMENT_THEORY":"SGP4","MEAN_ANOMALY":"274.6545","PERIAPSIS":"538.801","SITE":"AFETR","OBJECT_NAME":"STARLINK-3532","ECCENTRICITY":"0.00013830","SEMIMAJOR_AXIS":"6917.893","OBJECT_TYPE":"PAYLOAD","FILE":"3889987","TIME_SYSTEM":"UTC","TLE_LINE2":"2 51727  53.2165  29.2962 0001383  85.4605 274.6545 15.08835943 64019","BSTAR":"-0.00000169280000","EPHEMERIS_TYPE":"0","TLE_LINE1":"1 51727U 22016P   23108.77711040 -.00000315  00000-0 -16928-5 0  9996","LAUNCH_DATE":"2022-02-21","MEAN_MOTION_DOT":"-0.00000315","PERIOD":"95.438","CLASSIFICATION_TYPE":"U","MEAN_MOTION":"15.08835943","RA_OF_ASC_NODE":"29.2962","INCLINATION":"53.2165","RCS_SIZE":"LARGE","MEAN_MOTION_DDOT":"0.0000000000000","COUNTRY_CODE":"US","REV_AT_EPOCH":"6401","ARG_OF_PERICENTER":"85.4605","CENTER_NAME":"EARTH","DECAY_DATE":null,"GP_ID":"230332030","NORAD_CAT_ID":"51727","APOAPSIS":"540.715","ELEMENT_SET_NO":"999","EPOCH":"2023-04-18T18:39:02.338560"},{"ARG_OF_PERICENTER":"84.3055","CENTER_NAME":"EARTH","REV_AT_EPOCH":"6415","COUNTRY_CODE":"US","GP_ID":"230331284","DECAY_DATE":null,"APOAPSIS":"540.731","NORAD_CAT_ID":"51728","EPOCH":"2023-04-18T17:47:22.280640","ELEMENT_SET_NO":"999","CLASSIFICATION_TYPE":"U","PERIOD":"95.438","RA_OF_ASC_NODE":"19.4549","MEAN_MOTION":"15.08835494","RCS_SIZE":"LARGE","MEAN_MOTION_DDOT":"0.0000000000000","INCLINATION":"53.2172","TLE_LINE2":"2 51728  53.2172  19.4549 0001405  84.3055 275.8098 15.08835494 64154","TIME_SYSTEM":"UTC","FILE":"3889987","OBJECT_TYPE":"PAYLOAD","BSTAR":"0.00018453000000","EPHEMERIS_TYPE":"0","MEAN_MOTION_DOT":"0.00002650","LAUNCH_DATE":"2022-02-21","TLE_LINE1":"1 51728U 22016Q   23108.74123010  .00002650  00000-0  18453-3 0  9993","MEAN_ANOMALY":"275.8098","MEAN_ELEMENT_THEORY":"SGP4","OBJECT_ID":"2022-016Q","REF_FRAME":"TEME","SEMIMAJOR_AXIS":"6917.894","ECCENTRICITY":"0.00014050","SITE":"AFETR","OBJECT_NAME":"STARLINK-3448","PERIAPSIS":"538.787"},{"RCS_SIZE":"LARGE","INCLINATION":"53.2196","MEAN_MOTION_DDOT":"0.0000000000000","MEAN_MOTION":"15.08827124","RA_OF_ASC_NODE":"19.4231","PERIOD":"95.438","CLASSIFICATION_TYPE":"U","ELEMENT_SET_NO":"999","EPOCH":"2023-04-18T18:03:14.079456","NORAD_CAT_ID":"51729","APOAPSIS":"542.457","DECAY_DATE":null,"GP_ID":"230331033","REV_AT_EPOCH":"6415","COUNTRY_CODE":"US","ARG_OF_PERICENTER":"13.2732","CENTER_NAME":"EARTH","PERIAPSIS":"537.112","SEMIMAJOR_AXIS":"6917.920","OBJECT_NAME":"STARLINK-3523","SITE":"AFETR","ECCENTRICITY":"0.00038630","OBJECT_ID":"2022-016R","MEAN_ELEMENT_THEORY":"SGP4","REF_FRAME":"TEME","MEAN_ANOMALY":"346.8361","TLE_LINE1":"1 51729U 22016R   23108.75224629 -.00000099  00000-0  11926-4 0  9998","MEAN_MOTION_DOT":"-0.00000099","LAUNCH_DATE":"2022-02-21","EPHEMERIS_TYPE":"0","BSTAR":"0.00001192600000","FILE":"3889987","OBJECT_TYPE":"PAYLOAD","TLE_LINE2":"2 51729  53.2196  19.4231 0003863  13.2732 346.8361 15.08827124 64155","TIME_SYSTEM":"UTC"},{"RA_OF_ASC_NODE":"22.1643","MEAN_MOTION":"15.08844299","CLASSIFICATION_TYPE":"U","PERIOD":"95.437","RCS_SIZE":"LARGE","INCLINATION":"53.2178","MEAN_MOTION_DDOT":"0.0000000000000","DECAY_DATE":null,"GP_ID":"230299465","ARG_OF_PERICENTER":"102.3989","CENTER_NAME":"EARTH","COUNTRY_CODE":"US","REV_AT_EPOCH":"6406","EPOCH":"2023-04-18T03:18:17.698176","ELEMENT_SET_NO":"999","APOAPSIS":"540.492","NORAD_CAT_ID":"51730","MEAN_ANOMALY":"257.7126","REF_FRAME":"TEME","MEAN_ELEMENT_THEORY":"SGP4","OBJECT_ID":"2022-016S","OBJECT_NAME":"STARLINK-3530","SITE":"AFETR","ECCENTRICITY":"0.00010980","SEMIMAJOR_AXIS":"6917.867","PERIAPSIS":"538.973","BSTAR":"0.00037474000000","TLE_LINE2":"2 51730  53.2178  22.1643 0001098 102.3989 257.7126 15.08844299 64068","TIME_SYSTEM":"UTC","OBJECT_TYPE":"PAYLOAD","FILE":"3889684","LAUNCH_DATE":"2022-02-21","MEAN_MOTION_DOT":"0.00005682","TLE_LINE1":"1 51730U 22016S   23108.13770484  .00005682  00000-0  37474-3 0  9994","EPHEMERIS_TYPE":"0"},{"MEAN_MOTION_DOT":"0.00001380","LAUNCH_DATE":"2022-02-21","TLE_LINE1":"1 51731U 22016T   23108.74491107  .00001380  00000-0  10479-3 0  9991","EPHEMERIS_TYPE":"0","BSTAR":"0.00010479000000","TIME_SYSTEM":"UTC","TLE_LINE2":"2 51731  53.2174  19.4411 0001703  64.1104 296.0063 15.08838399 64154","FILE":"3889987","OBJECT_TYPE":"PAYLOAD","SEMIMAJOR_AXIS":"6917.885","OBJECT_NAME":"STARLINK-3514","SITE":"AFETR","ECCENTRICITY":"0.00017030","PERIAPSIS":"538.572","MEAN_ANOMALY":"296.0063","MEAN_ELEMENT_THEORY":"SGP4","OBJECT_ID":"2022-016T","REF_FRAME":"TEME","EPOCH":"2023-04-18T17:52:40.316448","ELEMENT_SET_NO":"999","APOAPSIS":"540.928","NORAD_CAT_ID":"51731","DECAY_DATE":null,"GP_ID":"230332530","CENTER_NAME":"EARTH","ARG_OF_PERICENTER":"64.1104","REV_AT_EPOCH":"6415","COUNTRY_CODE":"US","RCS_SIZE":"LARGE","MEAN_MOTION_DDOT":"0.0000000000000","INCLINATION":"53.2174","RA_OF_ASC_NODE":"19.4411","MEAN_MOTION":"15.08838399","CLASSIFICATION_TYPE":"U","PERIOD":"95.438"},{"NORAD_CAT_ID":"51732","APOAPSIS":"540.427","ELEMENT_SET_NO":"999","EPOCH":"2023-04-18T04:48:22.915008","COUNTRY_CODE":"US","REV_AT_EPOCH":"6521","ARG_OF_PERICENTER":"94.7801","CENTER_NAME":"EARTH","DECAY_DATE":null,"GP_ID":"230298465","RCS_SIZE":"MEDIUM","INCLINATION":"53.2168","MEAN_MOTION_DDOT":"0.0000000000000","PERIOD":"95.437","CLASSIFICATION_TYPE":"U","MEAN_MOTION":"15.08853970","RA_OF_ASC_NODE":"21.8830","EPHEMERIS_TYPE":"0","TLE_LINE1":"1 51732U 22016U   23108.20026522  .00020153  00000-0  12802-2 0  9998","LAUNCH_DATE":"2022-02-21","MEAN_MOTION_DOT":"0.00020153","OBJECT_TYPE":"PAYLOAD","FILE":"3889684","TLE_LINE2":"2 51732  53.2168  21.8830 0001047  94.7801 265.3310 15.08853970 65218","TIME_SYSTEM":"UTC","BSTAR":"0.00128020000000","PERIAPSIS":"538.978","ECCENTRICITY":"0.00010470","SITE":"AFETR","OBJECT_NAME":"STARLINK-3518","SEMIMAJOR_AXIS":"6917.838","REF_FRAME":"TEME","MEAN_ELEMENT_THEORY":"SGP4","OBJECT_ID":"2022-016U","MEAN_ANOMALY":"265.3310"}];
